EUTELSAT 8 WEST B       
1 40875U 15039B   26012.20670046 -.00000048  00000+0  00000+0 0  9999
2 40875   0.0652  14.0283 0004195 275.1887 248.9117  1.00272189 38096
EUTELSAT 9B             
1 41310U 16005A   26012.23633791  .00000079  00000+0  00000+0 0  9990
2 41310   0.0255  51.4542 0004433 237.9446 276.3934  1.00270538 36552
EUTELSAT 65 WEST A      
1 41382U 16014A   26012.22160447 -.00000259  00000+0  00000+0 0  9992
2 41382   0.0542 332.6660 0002181 326.2522 187.3686  1.00270613 35974
EUTELSAT 117 WEST B     
1 41589U 16038B   26012.30536374  .00000006  00000+0  00000+0 0  9991
2 41589   0.0062 205.8381 0000167  78.1979 180.7066  1.00272613 35108
EUTELSAT 172B           
1 42741U 17029B   26012.26866477  .00000012  00000+0  00000+0 0  9995
2 42741   0.0300 125.4994 0000169 307.2842 307.6793  1.00272286 32164
EUTELSAT 7C             
1 44334U 19034B   26012.09350284  .00000066  00000+0  00000+0 0  9997
2 44334   0.0763 181.5761 0003251  99.0157 231.6429  1.00274022  5276
EUTELSAT 5 WEST B       
1 44624U 19067A   26012.09905797 -.00000025  00000+0  00000+0 0  9996
2 44624   0.0639 344.3940 0003070 309.8668 207.9872  1.00272736 22879
EUTELSAT KONNECT        
1 45027U 20005B   26012.23599124  .00000067  00000+0  00000+0 0  9992
2 45027   0.0662  93.7295 0001226 206.2593 263.8889  1.00275335 22775
